GLOBALSTAR M068         
1 32266U 07048D   25089.54540163 -.00000025  00000+0  43774-3 0  9995
2 32266  51.9875 181.9828 0000419 345.8434  27.7396 12.62818622807623
GLOBALSTAR M079         
1 37188U 10054A   25090.11081703 -.00000086  00000+0  99834-4 0  9995
2 37188  52.0066  17.4616 0000807  88.2065  15.4427 12.62272217667270
GLOBALSTAR M074         
1 37189U 10054B   25089.80471891 -.00000086  00000+0  97543-4 0  9996
2 37189  52.0043  17.7297 0000399  85.1765 305.4399 12.62267590667169
GLOBALSTAR M076         
1 37190U 10054C   25089.83171701 -.00000091  00000+0  69431-4 0  9999
2 37190  52.0058  17.8069 0000619 104.3414 292.0085 12.62260145666885
GLOBALSTAR M077         
1 37191U 10054D   25089.83059194 -.00000071  00000+0  18544-3 0  9997
2 37191  52.0093 334.6509 0000721  84.7108   4.2854 12.62272495667259
GLOBALSTAR M075         
1 37192U 10054E   25089.63730293 -.00000109  00000+0 -31683-4 0  9995
2 37192  51.9951  60.6996 0000363  79.3963  92.1251 12.62262742665921
GLOBALSTAR M073         
1 37193U 10054F   25089.85496676 -.00000068  00000+0  20075-3 0  9999
2 37193  52.0083 333.8033 0000773  92.9871 346.1546 12.62269642667940
GLOBALSTAR M083         
1 37739U 11033A   25089.85377844 -.00000065  00000+0  21882-3 0  9992
2 37739  51.9854 282.6437 0000934  89.1293 285.8330 12.62261802636962
GLOBALSTAR M088         
1 37740U 11033B   25089.78396094 -.00000071  00000+0  18548-3 0  9996
2 37740  51.9725 188.4104 0000615 110.5186  67.7547 12.62264776632495
GLOBALSTAR M091         
1 37741U 11033C   25089.87483654 -.00000067  00000+0  20527-3 0  9991
2 37741  51.9982 151.5507 0000581  92.2251  78.3699 12.62266634633290
GLOBALSTAR M085         
1 37742U 11033D   25089.78241052 -.00000095  00000+0  50301-4 0  9991
2 37742  51.9849 102.9378 0000480  81.6401  88.8919 12.62266971633796
GLOBALSTAR M081         
1 37743U 11033E   25089.80907419 -.00000087  00000+0  93381-4 0  9997
2 37743  51.9939 105.5953 0000526 104.9028  66.9398 12.62262367633940
GLOBALSTAR M089         
1 37744U 11033F   25089.17978462 -.00000107  00000+0 -18157-4 0  9996
2 37744  51.9931  61.7522 0000258 119.1226 251.9520 12.62267925634712
GLOBALSTAR M084         
1 38040U 11080A   25089.97965388 -.00000083  00000+0  11648-3 0  9998
2 38040  52.0004 286.5677 0000650 115.7758 231.5288 12.62264408613064
GLOBALSTAR M080         
1 38041U 11080B   25089.80067819 -.00000078  00000+0  14407-3 0  9993
2 38041  52.0058 288.6931 0000832 128.4720 244.5361 12.62270900612892
GLOBALSTAR M082         
1 38042U 11080C   25089.84347590 -.00000109  00000+0 -26459-4 0  9992
2 38042  52.0062 243.9967 0000904  76.4008  72.1279 12.62264687613600
GLOBALSTAR M092         
1 38043U 11080D   25090.13736542 -.00000072  00000+0  17683-3 0  9992
2 38043  52.0105 333.4752 0000661  82.8684  82.3790 12.62261726612305
GLOBALSTAR M090         
1 38044U 11080E   25089.87240763 -.00000108  00000+0 -22149-4 0  9992
2 38044  51.9873 237.8180 0000849  95.6244  63.9061 12.62268647613722
GLOBALSTAR M086         
1 38045U 11080F   25090.13858969 -.00000098  00000+0  32843-4 0  9996
2 38045  51.9885 237.5524 0001569 130.0665  40.0389 12.62268737613804
GLOBALSTAR M097         
1 39072U 13005A   25089.49430611 -.00000066  00000+0  20944-3 0  9996
2 39072  52.0031 153.9821 0000662 111.4405 248.6532 12.62271331560877
GLOBALSTAR M093         
1 39073U 13005B   25089.30918549 -.00000068  00000+0  19942-3 0  9996
2 39073  51.9795 147.9723 0000614 110.8264 249.2669 12.62263287560802
GLOBALSTAR M094         
1 39074U 13005C   25089.62613990 -.00000116  00000+0 -65662-4 0  9990
2 39074  51.9961  61.3083 0000679  85.3356 274.7589 12.62269388562450
GLOBALSTAR M096         
1 39075U 13005D   25089.48103642 -.00000091  00000+0  73923-4 0  9993
2 39075  52.0054 110.2059 0000595  88.3985 271.6950 12.62269929561358
GLOBALSTAR M078         
1 39076U 13005E   25089.53329515 -.00000169  00000+0 -36190-3 0  9990
2 39076  51.9872 194.6613 0000938  42.5658 317.5281 12.62259253559989
GLOBALSTAR M095         
1 39077U 13005F   25089.79757666 -.00000073  00000+0  17079-3 0  9999
2 39077  51.9790 191.0940 0000915  80.8813 279.2157 12.62268298559879
GLOBALSTAR M087         
1 52888U 22064A   25090.06578074 -.00000071  00000+0  18538-3 0  9994
2 52888  51.9812 331.6826 0000861  76.9196 283.1766 12.62270097135504
